[{"OBJECT_NAME":"SKYTERRA 1","OBJECT_ID":"2010-061A","EPOCH":"2026-04-05T09:37:38.648928","MEAN_MOTION":1.00272046,"ECCENTRICITY":0.00025656,"INCLINATION":4.9714,"RA_OF_ASC_NODE":50.8871,"ARG_OF_PERICENTER":4.1567,"MEAN_ANOMALY":181.7463,"EPHEMERIS_TYPE":0,"CLASSIFICATION_TYPE":"U","NORAD_CAT_ID":37218,"ELEMENT_SET_NO":999,"REV_AT_EPOCH":5646,"BSTAR":0,"MEAN_MOTION_DOT":-1.15e-6,"MEAN_MOTION_DDOT":0},{"OBJECT_NAME":"DELTA 4 R/B","OBJECT_ID":"2010-063B","EPOCH":"2026-04-04T00:03:14.488992","MEAN_MOTION":1.04040171,"ECCENTRICITY":0.02104288,"INCLINATION":9.2286,"RA_OF_ASC_NODE":82.7234,"ARG_OF_PERICENTER":63.9822,"MEAN_ANOMALY":298.2392,"EPHEMERIS_TYPE":0,"CLASSIFICATION_TYPE":"U","NORAD_CAT_ID":37233,"ELEMENT_SET_NO":999,"REV_AT_EPOCH":2553,"BSTAR":0,"MEAN_MOTION_DOT":-2.16e-6,"MEAN_MOTION_DDOT":0},{"OBJECT_NAME":"HYLAS 1","OBJECT_ID":"2010-065A","EPOCH":"2026-04-05T16:13:59.499840","MEAN_MOTION":1.00272899,"ECCENTRICITY":0.0001913,"INCLINATION":5.46,"RA_OF_ASC_NODE":73.8917,"ARG_OF_PERICENTER":290.221,"MEAN_ANOMALY":87.1619,"EPHEMERIS_TYPE":0,"CLASSIFICATION_TYPE":"U","NORAD_CAT_ID":37237,"ELEMENT_SET_NO":999,"REV_AT_EPOCH":616,"BSTAR":0,"MEAN_MOTION_DOT":9.3e-7,"MEAN_MOTION_DDOT":0},{"OBJECT_NAME":"INTELSAT 17 (IS-17)","OBJECT_ID":"2010-065B","EPOCH":"2026-04-05T18:11:34.865952","MEAN_MOTION":1.00271705,"ECCENTRICITY":0.0002453,"INCLINATION":0.0131,"RA_OF_ASC_NODE":181.9365,"ARG_OF_PERICENTER":204.2401,"MEAN_ANOMALY":146.7658,"EPHEMERIS_TYPE":0,"CLASSIFICATION_TYPE":"U","NORAD_CAT_ID":37238,"ELEMENT_SET_NO":999,"REV_AT_EPOCH":5252,"BSTAR":0,"MEAN_MOTION_DOT":0,"MEAN_MOTION_DDOT":0},{"OBJECT_NAME":"BEIDOU-2 IGSO-2","OBJECT_ID":"2010-068A","EPOCH":"2026-03-27T10:45:38.648736","MEAN_MOTION":1.00251076,"ECCENTRICITY":0.00480708,"INCLINATION":47.6922,"RA_OF_ASC_NODE":272.8379,"ARG_OF_PERICENTER":212.2935,"MEAN_ANOMALY":326.6285,"EPHEMERIS_TYPE":0,"CLASSIFICATION_TYPE":"U","NORAD_CAT_ID":37256,"ELEMENT_SET_NO":999,"REV_AT_EPOCH":5597,"BSTAR":0,"MEAN_MOTION_DOT":-1.75e-6,"MEAN_MOTION_DDOT":0},{"OBJECT_NAME":"EUTELSAT KA-SAT 9A","OBJECT_ID":"2010-069A","EPOCH":"2026-04-05T19:56:26.504448","MEAN_MOTION":1.00269874,"ECCENTRICITY":0.0003468,"INCLINATION":0.0602,"RA_OF_ASC_NODE":1.4792,"ARG_OF_PERICENTER":136.6041,"MEAN_ANOMALY":4.1373,"EPHEMERIS_TYPE":0,"CLASSIFICATION_TYPE":"U","NORAD_CAT_ID":37258,"ELEMENT_SET_NO":999,"REV_AT_EPOCH":4328,"BSTAR":0,"MEAN_MOTION_DOT":6.3e-7,"MEAN_MOTION_DDOT":0},{"OBJECT_NAME":"HISPASAT 30W-5","OBJECT_ID":"2010-070A","EPOCH":"2026-04-05T19:26:57.600960","MEAN_MOTION":1.00272203,"ECCENTRICITY":0.0004291,"INCLINATION":0.0414,"RA_OF_ASC_NODE":110.7799,"ARG_OF_PERICENTER":293.3764,"MEAN_ANOMALY":51.7068,"EPHEMERIS_TYPE":0,"CLASSIFICATION_TYPE":"U","NORAD_CAT_ID":37264,"ELEMENT_SET_NO":999,"REV_AT_EPOCH":5245,"BSTAR":0,"MEAN_MOTION_DOT":-2.14e-6,"MEAN_MOTION_DDOT":0},{"OBJECT_NAME":"KOREASAT 6","OBJECT_ID":"2010-070B","EPOCH":"2026-04-05T18:38:24.794304","MEAN_MOTION":1.00272373,"ECCENTRICITY":0.0002351,"INCLINATION":0.0181,"RA_OF_ASC_NODE":208.4955,"ARG_OF_PERICENTER":173.0563,"MEAN_ANOMALY":252.0162,"EPHEMERIS_TYPE":0,"CLASSIFICATION_TYPE":"U","NORAD_CAT_ID":37265,"ELEMENT_SET_NO":999,"REV_AT_EPOCH":5604,"BSTAR":0,"MEAN_MOTION_DOT":-1.09e-6,"MEAN_MOTION_DDOT":0},{"OBJECT_NAME":"ELEKTRO-L 1 (GOMS 2)","OBJECT_ID":"2011-001A","EPOCH":"2026-04-05T19:12:06.524928","MEAN_MOTION":1.00164721,"ECCENTRICITY":0.0004052,"INCLINATION":9.5233,"RA_OF_ASC_NODE":55.2266,"ARG_OF_PERICENTER":15.2405,"MEAN_ANOMALY":329.8232,"EPHEMERIS_TYPE":0,"CLASSIFICATION_TYPE":"U","NORAD_CAT_ID":37344,"ELEMENT_SET_NO":999,"REV_AT_EPOCH":5575,"BSTAR":0,"MEAN_MOTION_DOT":-2.12e-6,"MEAN_MOTION_DDOT":0},{"OBJECT_NAME":"FREGAT R/B","OBJECT_ID":"2011-001B","EPOCH":"2026-04-05T13:40:08.273280","MEAN_MOTION":1.02799548,"ECCENTRICITY":0.0151351,"INCLINATION":10.104,"RA_OF_ASC_NODE":43.0307,"ARG_OF_PERICENTER":69.0052,"MEAN_ANOMALY":119.8931,"EPHEMERIS_TYPE":0,"CLASSIFICATION_TYPE":"U","NORAD_CAT_ID":37345,"ELEMENT_SET_NO":999,"REV_AT_EPOCH":5965,"BSTAR":0,"MEAN_MOTION_DOT":-4.3e-7,"MEAN_MOTION_DDOT":0},{"OBJECT_NAME":"BEIDOU-2 IGSO-3","OBJECT_ID":"2011-013A","EPOCH":"2026-04-05T18:23:56.183136","MEAN_MOTION":1.00285893,"ECCENTRICITY":0.0034285,"INCLINATION":62.3151,"RA_OF_ASC_NODE":40.8354,"ARG_OF_PERICENTER":189.349,"MEAN_ANOMALY":347.5113,"EPHEMERIS_TYPE":0,"CLASSIFICATION_TYPE":"U","NORAD_CAT_ID":37384,"ELEMENT_SET_NO":999,"REV_AT_EPOCH":5493,"BSTAR":0,"MEAN_MOTION_DOT":-1.84e-6,"MEAN_MOTION_DDOT":0},{"OBJECT_NAME":"INTELSAT 28 (IS-28)","OBJECT_ID":"2011-016A","EPOCH":"2026-04-05T19:26:27.648672","MEAN_MOTION":1.0027175,"ECCENTRICITY":0.0004544,"INCLINATION":1.6189,"RA_OF_ASC_NODE":83.497,"ARG_OF_PERICENTER":299.0546,"MEAN_ANOMALY":71.4635,"EPHEMERIS_TYPE":0,"CLASSIFICATION_TYPE":"U","NORAD_CAT_ID":37392,"ELEMENT_SET_NO":999,"REV_AT_EPOCH":5256,"BSTAR":0,"MEAN_MOTION_DOT":-2.22e-6,"MEAN_MOTION_DDOT":0},{"OBJECT_NAME":"YAHSAT 1A","OBJECT_ID":"2011-016B","EPOCH":"2026-04-05T16:25:05.934144","MEAN_MOTION":1.00271697,"ECCENTRICITY":0.0003237,"INCLINATION":0.0063,"RA_OF_ASC_NODE":233.1064,"ARG_OF_PERICENTER":154.2823,"MEAN_ANOMALY":105.359,"EPHEMERIS_TYPE":0,"CLASSIFICATION_TYPE":"U","NORAD_CAT_ID":37393,"ELEMENT_SET_NO":999,"REV_AT_EPOCH":4168,"BSTAR":0,"MEAN_MOTION_DOT":1.03e-6,"MEAN_MOTION_DDOT":0},{"OBJECT_NAME":"MERIDIAN 4","OBJECT_ID":"2011-018A","EPOCH":"2026-03-27T07:06:27.762624","MEAN_MOTION":2.0205229,"ECCENTRICITY":0.75096168,"INCLINATION":62.0768,"RA_OF_ASC_NODE":86.8592,"ARG_OF_PERICENTER":264.8296,"MEAN_ANOMALY":14.5762,"EPHEMERIS_TYPE":0,"CLASSIFICATION_TYPE":"U","NORAD_CAT_ID":37398,"ELEMENT_SET_NO":999,"REV_AT_EPOCH":10912,"BSTAR":0.0021546486,"MEAN_MOTION_DOT":0.00018792,"MEAN_MOTION_DDOT":0},{"OBJECT_NAME":"SBIRS GEO-1 (USA 230)","OBJECT_ID":"2011-019A","EPOCH":"2026-04-05T19:50:17.863296","MEAN_MOTION":1.00272199,"ECCENTRICITY":0.0002227,"INCLINATION":4.3782,"RA_OF_ASC_NODE":53.11,"ARG_OF_PERICENTER":318.1811,"MEAN_ANOMALY":172.206,"EPHEMERIS_TYPE":0,"CLASSIFICATION_TYPE":"U","NORAD_CAT_ID":37481,"ELEMENT_SET_NO":999,"REV_AT_EPOCH":5467,"BSTAR":0,"MEAN_MOTION_DOT":1.03e-6,"MEAN_MOTION_DDOT":0},{"OBJECT_NAME":"TELSTAR 14R","OBJECT_ID":"2011-021A","EPOCH":"2026-04-05T12:26:41.703936","MEAN_MOTION":1.00270711,"ECCENTRICITY":0.0002408,"INCLINATION":0.0151,"RA_OF_ASC_NODE":212.9164,"ARG_OF_PERICENTER":168.3827,"MEAN_ANOMALY":296.189,"EPHEMERIS_TYPE":0,"CLASSIFICATION_TYPE":"U","NORAD_CAT_ID":37602,"ELEMENT_SET_NO":999,"REV_AT_EPOCH":5510,"BSTAR":0,"MEAN_MOTION_DOT":0,"MEAN_MOTION_DDOT":0},{"OBJECT_NAME":"GSAT-8","OBJECT_ID":"2011-022A","EPOCH":"2026-04-05T18:08:27.665664","MEAN_MOTION":1.00272319,"ECCENTRICITY":0.0005583,"INCLINATION":1.9438,"RA_OF_ASC_NODE":82.6919,"ARG_OF_PERICENTER":225.0902,"MEAN_ANOMALY":213.4397,"EPHEMERIS_TYPE":0,"CLASSIFICATION_TYPE":"U","NORAD_CAT_ID":37605,"ELEMENT_SET_NO":999,"REV_AT_EPOCH":5249,"BSTAR":0,"MEAN_MOTION_DOT":8.7e-7,"MEAN_MOTION_DDOT":0}]
