SKYTERRA 1              
1 37218U 10061A   26095.40114177 -.00000115  00000+0  00000+0 0  9992
2 37218   4.9714  50.8871 0002565   4.1567 181.7463  1.00272046 56461
DELTA 4 R/B             
1 37233U 10063B   26094.00225103 -.00000216  00000+0  00000+0 0  9990
2 37233   9.2286  82.7234 0210428  63.9822 298.2392  1.04040171 25538
HYLAS 1                 
1 37237U 10065A   26095.67638310  .00000093  00000+0  00000+0 0  9990
2 37237   5.4600  73.8917 0001913 290.2210  87.1619  1.00272899  6167
INTELSAT 17 (IS-17)     
1 37238U 10065B   26095.75804243  .00000000  00000+0  00000+0 0  9998
2 37238   0.0131 181.9365 0002453 204.2401 146.7658  1.00271705 52524
BEIDOU-2 IGSO-2         
1 37256U 10068A   26086.44836399 -.00000175  00000+0  00000+0 0  9998
2 37256  47.6922 272.8379 0048070 212.2935 326.6285  1.00251076 55976
EUTELSAT KA-SAT 9A      
1 37258U 10069A   26095.83086232  .00000063  00000+0  00000+0 0  9992
2 37258   0.0602   1.4792 0003468 136.6041   4.1373  1.00269874 43282
HISPASAT 30W-5          
1 37264U 10070A   26095.81038890 -.00000214  00000+0  00000+0 0  9995
2 37264   0.0414 110.7799 0004291 293.3764  51.7068  1.00272203 52457
KOREASAT 6              
1 37265U 10070B   26095.77667586 -.00000109  00000+0  00000+0 0  9994
2 37265   0.0181 208.4955 0002351 173.0563 252.0162  1.00272373 56042
ELEKTRO-L 1 (GOMS 2)    
1 37344U 11001A   26095.80007552 -.00000212  00000+0  00000+0 0  9997
2 37344   9.5233  55.2266 0004052  15.2405 329.8232  1.00164721 55752
FREGAT R/B              
1 37345U 11001B   26095.56954020 -.00000043  00000+0  00000+0 0  9994
2 37345  10.1040  43.0307 0151351  69.0052 119.8931  1.02799548 59657
BEIDOU-2 IGSO-3         
1 37384U 11013A   26095.76662249 -.00000184  00000+0  00000+0 0  9997
2 37384  62.3151  40.8354 0034285 189.3490 347.5113  1.00285893 54936
INTELSAT 28 (IS-28)     
1 37392U 11016A   26095.81004223 -.00000222  00000+0  00000+0 0  9990
2 37392   1.6189  83.4970 0004544 299.0546  71.4635  1.00271750 52561
YAHSAT 1A               
1 37393U 11016B   26095.68409646  .00000103  00000+0  00000+0 0  9991
2 37393   0.0063 233.1064 0003237 154.2823 105.3590  1.00271697 41680
MERIDIAN 4              
1 37398U 11018A   26086.29615466  .00018792  00000+0  21546-2 0  9998
2 37398  62.0768  86.8592 7509616 264.8296  14.5762  2.02052290109120
SBIRS GEO-1 (USA 230)   
1 37481U 11019A   26095.82659564  .00000103  00000+0  00000+0 0  9994
2 37481   4.3782  53.1100 0002227 318.1811 172.2060  1.00272199 54676
TELSTAR 14R             
1 37602U 11021A   26095.51853824  .00000000  00000+0  00000+0 0  9999
2 37602   0.0151 212.9164 0002408 168.3827 296.1890  1.00270711 55106
GSAT-8                  
1 37605U 11022A   26095.75587576  .00000087  00000+0  00000+0 0  9992
2 37605   1.9438  82.6919 0005583 225.0902 213.4397  1.00272319 52498
